[{"OBJECT_NAME":"IRIDIUM 152","OBJECT_ID":"2018-047D","EPOCH":"2026-03-09T16:21:38.136960","MEAN_MOTION":14.34219217,"ECCENTRICITY":0.00022297,"INCLINATION":86.3976,"RA_OF_ASC_NODE":129.947,"ARG_OF_PERICENTER":92.4036,"MEAN_ANOMALY":267.7415,"EPHEMERIS_TYPE":0,"CLASSIFICATION_TYPE":"U","NORAD_CAT_ID":43479,"ELEMENT_SET_NO":999,"REV_AT_EPOCH":40822,"BSTAR":9.8771642e-5,"MEAN_MOTION_DOT":2.96e-6,"MEAN_MOTION_DDOT":0},{"OBJECT_NAME":"IRIDIUM 33 DEB","OBJECT_ID":"1997-051BF","EPOCH":"2026-03-09T21:39:51.926112","MEAN_MOTION":14.36169233,"ECCENTRICITY":0.00129359,"INCLINATION":86.3845,"RA_OF_ASC_NODE":30.5157,"ARG_OF_PERICENTER":329.9454,"MEAN_ANOMALY":83.6834,"EPHEMERIS_TYPE":0,"CLASSIFICATION_TYPE":"U","NORAD_CAT_ID":33886,"ELEMENT_SET_NO":999,"REV_AT_EPOCH":89303,"BSTAR":0.0002657499,"MEAN_MOTION_DOT":7.94e-6,"MEAN_MOTION_DDOT":0}]
